start=new Date('2022-05-26T00:00:00.000Z').valueOf();
sats=[{"MEAN_ANOMALY":"317.6725","PERIOD":"95.592","RA_OF_ASC_NODE":"146.1332","COUNTRY_CODE":"US","BSTAR":"0.00003782900000","OBJECT_ID":"2021-012Z","SITE":"AFETR","SEMIMAJOR_AXIS":"6925.360","MEAN_MOTION_DOT":"0.00000282","ARG_OF_PERICENTER":"42.4433","ECCENTRICITY":"0.00021820","MEAN_MOTION":"15.06396279","LAUNCH_DATE":"2021-02-16","TLE_LINE2":"2 47643  53.0553 146.1332 0002182  42.4433 317.6725 15.06396279 71614","DECAY_DATE":null,"OBJECT_NAME":"STARLINK-2022","ELEMENT_SET_NO":"999","OBJECT_TYPE":"PAYLOAD","PERIAPSIS":"545.714","INCLINATION":"53.0553","REF_FRAME":"TEME","MEAN_ELEMENT_THEORY":"SGP4","CLASSIFICATION_TYPE":"U","MEAN_MOTION_DDOT":"0.0000000000000","RCS_SIZE":"LARGE","APOAPSIS":"548.736","EPHEMERIS_TYPE":"0","REV_AT_EPOCH":"7161","FILE":"3463908","EPOCH":"2022-05-25T08:35:17.213568","TIME_SYSTEM":"UTC","NORAD_CAT_ID":"47643","CENTER_NAME":"EARTH","TLE_LINE1":"1 47643U 21012Z   22145.35783812  .00000282  00000-0  37829-4 0  9996","GP_ID":"204503558"},{"MEAN_ELEMENT_THEORY":"SGP4","REF_FRAME":"TEME","MEAN_MOTION_DDOT":"0.0000000000000","CLASSIFICATION_TYPE":"U","EPHEMERIS_TYPE":"0","APOAPSIS":"548.360","RCS_SIZE":"LARGE","REV_AT_EPOCH":"7137","FILE":"3464394","EPOCH":"2022-05-25T13:40:28.313760","TIME_SYSTEM":"UTC","NORAD_CAT_ID":"47644","TLE_LINE1":"1 47644U 21012AA  22145.56977215  .00005726  00000-0  40288-3 0  9992","CENTER_NAME":"EARTH","GP_ID":"204537197","PERIOD":"95.592","MEAN_ANOMALY":"306.9667","RA_OF_ASC_NODE":"165.1774","COUNTRY_CODE":"US","BSTAR":"0.00040288000000","OBJECT_ID":"2021-012AA","SITE":"AFETR","SEMIMAJOR_AXIS":"6925.327","ARG_OF_PERICENTER":"53.1476","ECCENTRICITY":"0.00016870","MEAN_MOTION_DOT":"0.00005726","MEAN_MOTION":"15.06407176","LAUNCH_DATE":"2021-02-16","TLE_LINE2":"2 47644  53.0533 165.1774 0001687  53.1476 306.9667 15.06407176 71377","OBJECT_NAME":"STARLINK-2026","DECAY_DATE":null,"ELEMENT_SET_NO":"999","OBJECT_TYPE":"PAYLOAD","INCLINATION":"53.0533","PERIAPSIS":"546.023"},{"BSTAR":"0.00008885800000","COUNTRY_CODE":"US","PERIOD":"95.592","RA_OF_ASC_NODE":"136.0706","MEAN_ANOMALY":"299.5282","SEMIMAJOR_AXIS":"6925.349","SITE":"AFETR","OBJECT_ID":"2021-012AB","LAUNCH_DATE":"2021-02-16","TLE_LINE2":"2 47645  53.0547 136.0706 0001616  60.5869 299.5282 15.06399742 71734","MEAN_MOTION":"15.06399742","MEAN_MOTION_DOT":"0.00001042","ARG_OF_PERICENTER":"60.5869","ECCENTRICITY":"0.00016160","PERIAPSIS":"546.095","INCLINATION":"53.0547","OBJECT_TYPE":"PAYLOAD","ELEMENT_SET_NO":"999","DECAY_DATE":null,"OBJECT_NAME":"STARLINK-2027","REV_AT_EPOCH":"7173","RCS_SIZE":"LARGE","APOAPSIS":"548.333","EPHEMERIS_TYPE":"0","CLASSIFICATION_TYPE":"U","MEAN_MOTION_DDOT":"0.0000000000000","REF_FRAME":"TEME","MEAN_ELEMENT_THEORY":"SGP4","EPOCH":"2022-05-25T08:51:10.831104","FILE":"3463908","NORAD_CAT_ID":"47645","TIME_SYSTEM":"UTC","GP_ID":"204502557","CENTER_NAME":"EARTH","TLE_LINE1":"1 47645U 21012AB  22145.36887536  .00001042  00000-0  88858-4 0  9990"},{"CENTER_NAME":"EARTH","TLE_LINE1":"1 47646U 21012AC  22145.16397794 -.00000339  00000-0 -45846-5 0  9992","GP_ID":"204502808","TIME_SYSTEM":"UTC","NORAD_CAT_ID":"47646","FILE":"3463908","EPOCH":"2022-05-25T03:56:07.694016","CLASSIFICATION_TYPE":"U","MEAN_MOTION_DDOT":"0.0000000000000","REF_FRAME":"TEME","MEAN_ELEMENT_THEORY":"SGP4","REV_AT_EPOCH":"7219","RCS_SIZE":"LARGE","APOAPSIS":"556.091","EPHEMERIS_TYPE":"0","ELEMENT_SET_NO":"999","DECAY_DATE":null,"OBJECT_NAME":"STARLINK-2028","PERIAPSIS":"553.348","INCLINATION":"53.0565","OBJECT_TYPE":"PAYLOAD","MEAN_MOTION":"15.03954306","MEAN_MOTION_DOT":"-0.00000339","ECCENTRICITY":"0.00019780","ARG_OF_PERICENTER":"48.2533","LAUNCH_DATE":"2021-02-16","TLE_LINE2":"2 47646  53.0565 102.0803 0001978  48.2533 311.8624 15.03954306 72197","SEMIMAJOR_AXIS":"6932.854","SITE":"AFETR","OBJECT_ID":"2021-012AC","RA_OF_ASC_NODE":"102.0803","PERIOD":"95.748","MEAN_ANOMALY":"311.8624","BSTAR":"-0.00000458460000","COUNTRY_CODE":"US"},{"EPOCH":"2022-05-25T09:09:47.812032","FILE":"3463908","REV_AT_EPOCH":"7134","APOAPSIS":"548.461","RCS_SIZE":"LARGE","EPHEMERIS_TYPE":"0","CLASSIFICATION_TYPE":"U","MEAN_MOTION_DDOT":"0.0000000000000","REF_FRAME":"TEME","MEAN_ELEMENT_THEORY":"SGP4","GP_ID":"204503058","CENTER_NAME":"EARTH","TLE_LINE1":"1 47647U 21012AD  22145.38180338  .00000099  00000-0  25558-4 0  9999","NORAD_CAT_ID":"47647","TIME_SYSTEM":"UTC","SEMIMAJOR_AXIS":"6925.388","SITE":"AFETR","OBJECT_ID":"2021-012AD","BSTAR":"0.00002555800000","COUNTRY_CODE":"US","PERIOD":"95.593","MEAN_ANOMALY":"303.5507","RA_OF_ASC_NODE":"166.0292","PERIAPSIS":"546.045","INCLINATION":"53.0538","OBJECT_TYPE":"PAYLOAD","ELEMENT_SET_NO":"999","DECAY_DATE":null,"OBJECT_NAME":"STARLINK-2030","LAUNCH_DATE":"2021-02-16","TLE_LINE2":"2 47647  53.0538 166.0292 0001744  56.5649 303.5507 15.06387054 71348","MEAN_MOTION":"15.06387054","MEAN_MOTION_DOT":"0.00000099","ARG_OF_PERICENTER":"56.5649","ECCENTRICITY":"0.00017440"},{"PERIOD":"95.593","RA_OF_ASC_NODE":"145.7703","MEAN_ANOMALY":"319.4619","BSTAR":"-0.00006244700000","COUNTRY_CODE":"US","SEMIMAJOR_AXIS":"6925.382","SITE":"AFETR","OBJECT_ID":"2021-012AE","MEAN_MOTION":"15.06389240","ARG_OF_PERICENTER":"40.6522","ECCENTRICITY":"0.00020300","MEAN_MOTION_DOT":"-0.00001211","LAUNCH_DATE":"2021-02-16","TLE_LINE2":"2 47648  53.0539 145.7703 0002030  40.6522 319.4619 15.06389240 71118","ELEMENT_SET_NO":"999","OBJECT_NAME":"STARLINK-2031","DECAY_DATE":null,"INCLINATION":"53.0539","PERIAPSIS":"545.841","OBJECT_TYPE":"PAYLOAD","MEAN_MOTION_DDOT":"0.0000000000000","CLASSIFICATION_TYPE":"U","MEAN_ELEMENT_THEORY":"SGP4","REF_FRAME":"TEME","REV_AT_EPOCH":"7111","EPHEMERIS_TYPE":"0","APOAPSIS":"548.652","RCS_SIZE":"MEDIUM","FILE":"3463447","EPOCH":"2022-05-25T10:32:04.117056","TIME_SYSTEM":"UTC","NORAD_CAT_ID":"47648","TLE_LINE1":"1 47648U 21012AE  22145.43893654 -.00001211  00000-0 -62447-4 0  9995","CENTER_NAME":"EARTH","GP_ID":"204472759"},{"GP_ID":"204502057","CENTER_NAME":"EARTH","TLE_LINE1":"1 47649U 21012AF  22145.30992635  .00000143  00000-0  28520-4 0  9996","NORAD_CAT_ID":"47649","TIME_SYSTEM":"UTC","EPOCH":"2022-05-25T07:26:17.636640","FILE":"3463908","RCS_SIZE":"LARGE","APOAPSIS":"548.673","EPHEMERIS_TYPE":"0","REV_AT_EPOCH":"7161","REF_FRAME":"TEME","MEAN_ELEMENT_THEORY":"SGP4","CLASSIFICATION_TYPE":"U","MEAN_MOTION_DDOT":"0.0000000000000","OBJECT_TYPE":"PAYLOAD","PERIAPSIS":"545.821","INCLINATION":"53.0547","DECAY_DATE":null,"OBJECT_NAME":"STARLINK-2032","ELEMENT_SET_NO":"999","LAUNCH_DATE":"2021-02-16","TLE_LINE2":"2 47649  53.0547 146.3481 0002059  43.9122 316.2031 15.06389027 71612","MEAN_MOTION_DOT":"0.00000143","ARG_OF_PERICENTER":"43.9122","ECCENTRICITY":"0.00020590","MEAN_MOTION":"15.06389027","OBJECT_ID":"2021-012AF","SITE":"AFETR","SEMIMAJOR_AXIS":"6925.382","COUNTRY_CODE":"US","BSTAR":"0.00002852000000","MEAN_ANOMALY":"316.2031","PERIOD":"95.593","RA_OF_ASC_NODE":"146.3481"},{"SEMIMAJOR_AXIS":"6925.372","SITE":"AFETR","OBJECT_ID":"2021-012AG","PERIOD":"95.593","RA_OF_ASC_NODE":"145.5213","MEAN_ANOMALY":"315.9209","BSTAR":"0.00003190000000","COUNTRY_CODE":"US","ELEMENT_SET_NO":"999","DECAY_DATE":null,"OBJECT_NAME":"STARLINK-2033","PERIAPSIS":"545.840","INCLINATION":"53.0542","OBJECT_TYPE":"PAYLOAD","MEAN_MOTION":"15.06392426","MEAN_MOTION_DOT":"0.00000193","ARG_OF_PERICENTER":"44.1941","ECCENTRICITY":"0.00020170","LAUNCH_DATE":"2021-02-16","TLE_LINE2":"2 47650  53.0542 145.5213 0002017  44.1941 315.9209 15.06392426 71620","FILE":"3463908","EPOCH":"2022-05-25T11:51:40.772160","CLASSIFICATION_TYPE":"U","MEAN_MOTION_DDOT":"0.0000000000000","REF_FRAME":"TEME","MEAN_ELEMENT_THEORY":"SGP4","REV_AT_EPOCH":"7162","APOAPSIS":"548.634","RCS_SIZE":"LARGE","EPHEMERIS_TYPE":"0","CENTER_NAME":"EARTH","TLE_LINE1":"1 47650U 21012AG  22145.49422190  .00000193  00000-0  31900-4 0  9993","GP_ID":"204503308","TIME_SYSTEM":"UTC","NORAD_CAT_ID":"47650"},{"EPOCH":"2022-05-25T12:40:45.045696","FILE":"3464031","REV_AT_EPOCH":"7084","EPHEMERIS_TYPE":"0","RCS_SIZE":"LARGE","APOAPSIS":"548.562","MEAN_MOTION_DDOT":"0.0000000000000","CLASSIFICATION_TYPE":"U","MEAN_ELEMENT_THEORY":"SGP4","REF_FRAME":"TEME","GP_ID":"204507691","TLE_LINE1":"1 47651U 21012AH  22145.52829914  .00000205  00000-0  32710-4 0  9997","CENTER_NAME":"EARTH","NORAD_CAT_ID":"47651","TIME_SYSTEM":"UTC","SEMIMAJOR_AXIS":"6925.373","SITE":"AFETR","OBJECT_ID":"2021-012AH","BSTAR":"0.00003271000000","COUNTRY_CODE":"US","RA_OF_ASC_NODE":"165.3726","PERIOD":"95.593","MEAN_ANOMALY":"307.1292","INCLINATION":"53.0549","PERIAPSIS":"545.914","OBJECT_TYPE":"PAYLOAD","ELEMENT_SET_NO":"999","OBJECT_NAME":"STARLINK-2035","DECAY_DATE":null,"LAUNCH_DATE":"2021-02-16","TLE_LINE2":"2 47651  53.0549 165.3726 0001912  52.9871 307.1292 15.06392086 70849","MEAN_MOTION":"15.06392086","ARG_OF_PERICENTER":"52.9871","ECCENTRICITY":"0.00019120","MEAN_MOTION_DOT":"0.00000205"},{"NORAD_CAT_ID":"47652","TIME_SYSTEM":"UTC","GP_ID":"204537198","TLE_LINE1":"1 47652U 21012AJ  22145.55505619 -.00001025  00000-0 -49932-4 0  9991","CENTER_NAME":"EARTH","EPHEMERIS_TYPE":"0","RCS_SIZE":"LARGE","APOAPSIS":"548.630","REV_AT_EPOCH":"7136","MEAN_ELEMENT_THEORY":"SGP4","REF_FRAME":"TEME","MEAN_MOTION_DDOT":"0.0000000000000","CLASSIFICATION_TYPE":"U","EPOCH":"2022-05-25T13:19:16.854816","FILE":"3464394","LAUNCH_DATE":"2021-02-16","TLE_LINE2":"2 47652  53.0530 165.2462 0001983  40.1894 319.9241 15.06385795 71360","ARG_OF_PERICENTER":"40.1894","ECCENTRICITY":"0.00019830","MEAN_MOTION_DOT":"-0.00001025","MEAN_MOTION":"15.06385795","OBJECT_TYPE":"PAYLOAD","INCLINATION":"53.0530","PERIAPSIS":"545.884","OBJECT_NAME":"STARLINK-2036","DECAY_DATE":null,"ELEMENT_SET_NO":"999","COUNTRY_CODE":"US","BSTAR":"-0.00004993200000","MEAN_ANOMALY":"319.9241","PERIOD":"95.593","RA_OF_ASC_NODE":"165.2462","SITE":"AFETR","OBJECT_ID":"2021-012AJ","SEMIMAJOR_AXIS":"6925.392"}];
